NORAD_CAT_ID,OBJECT_NAME,OBJECT_TYPE,EPOCH,MEAN_MOTION,ECCENTRICITY,INCLINATION,RA_OF_ASC_NODE,ARG_OF_PERICENTER,MEAN_ANOMALY,BSTAR,MEAN_MOTION_DOT,MEAN_MOTION_DDOT,TLE_LINE0,TLE_LINE1,TLE_LINE2,SEMIMAJOR_AXIS,PERIOD,APOGEE,PERIGEE,DECAYED
49744.0,STARLINK-3231,PAYLOAD,2023-04-01 19:17:48,15.08846452,0.0001319,53.216,285.3868,62.9231,297.1895,0.0012562,0.00019764,0.0,0 STARLINK-3231,1 49744U 21115W   23091.80403560  .00019764  00000-0  12562-2 0  9994,2 49744  53.2160 285.3868 0001319  62.9231 297.1895 15.08846452 73569,6917.861,95.437,540.638,538.813,0.0
49744.0,STARLINK-3231,PAYLOAD,2023-04-02 12:47:03,15.08844212,8.12e-05,53.216,282.115,56.5032,303.6038,0.00070053,0.0001088,0.0,0 STARLINK-3231,1 49744U 21115W   23092.53267696  .00010880  00000-0  70053-3 0  9993,2 49744  53.2160 282.1150 0000812  56.5032 303.6038 15.08844212 74782,6917.868,95.437,540.294,539.171,0.0
49744.0,STARLINK-3231,PAYLOAD,2023-04-02 19:08:35,15.08849614,0.0001106,53.2159,280.9246,81.7199,278.3918,0.00053413,8.225e-05,0.0,0 STARLINK-3231,1 49744U 21115W   23092.79763427  .00008225  00000-0  53413-3 0  9995,2 49744  53.2159 280.9246 0001106  81.7199 278.3918 15.08849614 73711,6917.851,95.437,540.481,538.951,0.0
49744.0,STARLINK-3231,PAYLOAD,2023-04-03 12:37:50,15.08844284,0.0001483,53.2174,277.6539,108.7649,251.3504,0.00022249,3.255e-05,0.0,0 STARLINK-3231,1 49744U 21115W   23093.52627361  .00003255  00000-0  22249-3 0  9994,2 49744  53.2174 277.6539 0001483 108.7649 251.3504 15.08844284 74939,6917.867,95.437,540.758,538.706,0.0
49744.0,STARLINK-3231,PAYLOAD,2023-04-04 12:28:37,15.08843015,0.0001108,53.2148,273.1912,92.6955,267.4164,8.9433e-05,1.136e-05,0.0,0 STARLINK-3231,1 49744U 21115W   23094.51987434  .00001136  00000-0  89433-4 0  9999,2 49744  53.2148 273.1912 0001108  92.6955 267.4164 15.08843015 75089,6917.871,95.437,540.503,538.97,0.0
49744.0,STARLINK-3231,PAYLOAD,2023-04-05 12:19:24,15.08843502,9.24e-05,53.2159,268.7308,90.8553,269.2546,-6.6192e-06,-3.93e-06,0.0,0 STARLINK-3231,1 49744U 21115W   23095.51347318 -.00000393  00000-0 -66192-5 0  9995,2 49744  53.2159 268.7308 0000924  90.8553 269.2546 15.08843502 74128,6917.87,95.437,540.374,539.095,0.0
49744.0,STARLINK-3231,PAYLOAD,2023-04-05 15:30:10,15.08838161,9.84e-05,53.2144,268.1345,85.3216,274.7889,3.4187e-05,2.56e-06,0.0,0 STARLINK-3231,1 49744U 21115W   23095.64595619  .00000256  00000-0  34187-4 0  9992,2 49744  53.2144 268.1345 0000984  85.3216 274.7889 15.08838161 75259,6917.886,95.438,540.432,539.07,0.0
49744.0,STARLINK-3231,PAYLOAD,2023-04-05 18:40:56,15.08837572,0.0001058,53.2155,267.5408,88.5858,271.5255,4.5742e-05,4.4e-06,0.0,0 STARLINK-3231,1 49744U 21115W   23095.77843703  .00000440  00000-0  45742-4 0  9990,2 49744  53.2155 267.5408 0001058  88.5858 271.5255 15.08837572 74160,6917.888,95.438,540.485,539.021,0.0
49744.0,STARLINK-3231,PAYLOAD,2023-04-06 10:34:48,15.0883573,0.0001063,53.2154,264.5671,84.806,275.3053,2.2401e-05,6.9e-07,0.0,0 STARLINK-3231,1 49744U 21115W   23096.44083937  .00000069  00000-0  22401-4 0  9994,2 49744  53.2154 264.5671 0001063  84.8060 275.3053 15.08835730 74261,6917.893,95.438,540.494,539.023,0.0
49744.0,STARLINK-3231,PAYLOAD,2023-04-07 04:04:02,15.08841319,0.0001221,53.2169,261.2976,92.4944,267.6188,0.00018885,2.719e-05,0.0,0 STARLINK-3231,1 49744U 21115W   23097.16947680  .00002719  00000-0  18885-3 0  9992,2 49744  53.2169 261.2976 0001221  92.4944 267.6188 15.08841319 75489,6917.876,95.437,540.586,538.897,0.0
49744.0,STARLINK-3231,PAYLOAD,2023-04-07 12:00:58,15.08839239,0.0001295,53.2174,259.811,92.9593,267.1548,0.00013654,1.886e-05,0.0,0 STARLINK-3231,1 49744U 21115W   23097.50067875  .00001886  00000-0  13654-3 0  9992,2 49744  53.2174 259.8110 0001295  92.9593 267.1548 15.08839239 74420,6917.883,95.438,540.644,538.852,0.0
49744.0,STARLINK-3231,PAYLOAD,2023-04-08 10:16:22,15.0883796,0.0001574,53.2183,255.6488,81.1578,278.9592,2.7073e-05,1.43e-06,0.0,0 STARLINK-3231,1 49744U 21115W   23098.42804122  .00000143  00000-0  27073-4 0  9994,2 49744  53.2183 255.6488 0001574  81.1578 278.9592 15.08837960 75671,6917.887,95.438,540.84,538.663,0.0
49744.0,STARLINK-3231,PAYLOAD,2023-04-09 10:07:09,15.08836198,0.0001377,53.2175,251.1878,84.7561,275.3589,5.4766e-05,5.84e-06,0.0,0 STARLINK-3231,1 49744U 21115W   23099.42164303  .00000584  00000-0  54766-4 0  9993,2 49744  53.2175 251.1878 0001377  84.7561 275.3589 15.08836198 74711,6917.892,95.438,540.71,538.804,0.0
49744.0,STARLINK-3231,PAYLOAD,2023-04-09 16:28:42,15.08840192,0.0001208,53.2175,249.9979,91.5118,268.6012,9.9416e-05,1.295e-05,0.0,0 STARLINK-3231,1 49744U 21115W   23099.68660097  .00001295  00000-0  99416-4 0  9993,2 49744  53.2175 249.9979 0001208  91.5118 268.6012 15.08840192 75867,6917.88,95.438,540.58,538.909,0.0
49744.0,STARLINK-3231,PAYLOAD,2023-04-10 13:08:43,15.08844433,0.0001361,53.2162,246.1325,86.0983,274.0164,0.00021124,3.076e-05,0.0,0 STARLINK-3231,1 49744U 21115W   23100.54772025  .00003076  00000-0  21124-3 0  9995,2 49744  53.2162 246.1325 0001361  86.0983 274.0164 15.08844433 74888,6917.867,95.437,540.673,538.79,0.0
49744.0,STARLINK-3231,PAYLOAD,2023-04-10 19:30:15,15.08854476,0.0001352,53.2168,244.9426,89.6984,270.4163,0.00029299,4.38e-05,0.0,0 STARLINK-3231,1 49744U 21115W   23100.81267425  .00004380  00000-0  29299-3 0  9998,2 49744  53.2168 244.9426 0001352  89.6984 270.4163 15.08854476 74924,6917.836,95.437,540.636,538.766,0.0
49744.0,STARLINK-3231,PAYLOAD,2023-04-11 09:48:43,15.08837572,0.0001226,53.2166,242.2661,99.9042,260.2088,4.2327e-05,3.86e-06,0.0,0 STARLINK-3231,1 49744U 21115W   23101.40884201  .00000386  00000-0  42327-4 0  9991,2 49744  53.2166 242.2661 0001226  99.9042 260.2088 15.08837572 75015,6917.888,95.438,540.601,538.905,0.0
49744.0,STARLINK-3231,PAYLOAD,2023-04-11 19:21:02,15.08846892,0.0001408,53.2168,240.4824,98.5688,261.5463,0.0001364,1.884e-05,0.0,0 STARLINK-3231,1 49744U 21115W   23101.80627700  .00001884  00000-0  13640-3 0  9993,2 49744  53.2168 240.4824 0001408  98.5688 261.5463 15.08846892 76186,6917.859,95.437,540.698,538.75,0.0
49744.0,STARLINK-3231,PAYLOAD,2023-04-12 09:39:30,15.08836719,0.0001033,53.2153,237.8059,101.1828,258.9281,-2.9677e-05,-7.6e-06,0.0,0 STARLINK-3231,1 49744U 21115W   23102.40244114 -.00000760  00000-0 -29677-4 0  9996,2 49744  53.2153 237.8059 0001033 101.1828 258.9281 15.08836719 76276,6917.89,95.438,540.47,539.041,0.0
49744.0,STARLINK-3231,PAYLOAD,2023-04-13 09:30:17,15.08844904,7.56e-05,53.222,233.3482,97.2872,262.8206,-5.4048e-05,-1.148e-05,0.0,0 STARLINK-3231,1 49744U 21115W   23103.39603693 -.00001148  00000-0 -54048-4 0  9997,2 49744  53.2220 233.3482 0000756  97.2872 262.8206 15.08844904 75317,6917.865,95.437,540.253,539.207,0.0
49744.0,STARLINK-3231,PAYLOAD,2023-04-14 09:21:05,15.08830584,8.67e-05,53.218,228.8878,98.095,262.0141,-6.4102e-05,-1.307e-05,0.0,0 STARLINK-3231,1 49744U 21115W   23104.38964566 -.00001307  00000-0 -64102-4 0  9995,2 49744  53.2180 228.8878 0000867  98.0950 262.0141 15.08830584 76577,6917.909,95.438,540.374,539.174,0.0
49744.0,STARLINK-3231,PAYLOAD,2023-04-14 17:18:00,15.08846929,7.28e-05,53.2181,227.3991,80.975,279.1325,0.00021757,3.177e-05,0.0,0 STARLINK-3231,1 49744U 21115W   23104.72083957  .00003177  00000-0  21757-3 0  9992,2 49744  53.2181 227.3991 0000728  80.9750 279.1325 15.08846929 76621,6917.859,95.437,540.228,539.221,0.0
49744.0,STARLINK-3231,PAYLOAD,2023-04-15 07:36:29,15.08842816,0.0001524,53.2142,224.7229,80.2514,279.865,0.0002044,2.967e-05,0.0,0 STARLINK-3231,1 49744U 21115W   23105.31700422  .00002967  00000-0  20440-3 0  9995,2 49744  53.2142 224.7229 0001524  80.2514 279.8650 15.08842816 76718,6917.872,95.437,540.791,538.682,0.0
49744.0,STARLINK-3231,PAYLOAD,2023-04-15 13:58:01,15.08849837,0.0001187,53.2166,223.5338,83.7047,276.4081,0.00030362,4.549e-05,0.0,0 STARLINK-3231,1 49744U 21115W   23105.58196106  .00004549  00000-0  30362-3 0  9994,2 49744  53.2166 223.5338 0001187  83.7047 276.4081 15.08849837 75648,6917.85,95.437,540.536,538.894,0.0
49744.0,STARLINK-3231,PAYLOAD,2023-04-15 17:08:47,15.08859601,0.0001018,53.2157,222.9371,88.0922,272.0187,0.00059757,9.24e-05,0.0,0 STARLINK-3231,1 49744U 21115W   23105.71443794  .00009240  00000-0  59757-3 0  9999,2 49744  53.2157 222.9371 0001018  88.0922 272.0187 15.08859601 76775,6917.82,95.436,540.39,538.981,0.0
49744.0,STARLINK-3231,PAYLOAD,2023-04-16 13:48:48,15.0884063,0.0001551,53.2177,219.0737,66.3902,293.7253,0.00012102,1.639e-05,0.0,0 STARLINK-3231,1 49744U 21115W   23106.57556636  .00001639  00000-0  12102-3 0  9991,2 49744  53.2177 219.0737 0001551  66.3902 293.7253 15.08840630 75796,6917.878,95.438,540.816,538.671,0.0
49744.0,STARLINK-3231,PAYLOAD,2023-04-16 18:34:57,15.08855291,0.0001032,53.2168,218.179,76.6615,283.4492,0.00043776,6.689e-05,0.0,0 STARLINK-3231,1 49744U 21115W   23106.77427945  .00006689  00000-0  43776-3 0  9994,2 49744  53.2168 218.1790 0001032  76.6615 283.4492 15.08855291 75828,6917.834,95.437,540.413,538.985,0.0
49744.0,STARLINK-3231,PAYLOAD,2023-04-17 00:56:30,15.08836313,0.0001163,53.2158,216.9919,57.2554,302.855,7.9577e-05,9.79e-06,0.0,0 STARLINK-3231,1 49744U 21115W   23107.03924599  .00000979  00000-0  79577-4 0  9996,2 49744  53.2158 216.9919 0001163  57.2554 302.8550 15.08836313 76970,6917.892,95.438,540.561,538.952,0.0
49744.0,STARLINK-3231,PAYLOAD,2023-04-17 13:39:36,15.0884852,0.0001444,53.2171,214.6111,73.6115,286.5036,0.00071109,0.0001105,0.0,0 STARLINK-3231,1 49744U 21115W   23107.56916760  .00011050  00000-0  71109-3 0  9999,2 49744  53.2171 214.6111 0001444  73.6115 286.5036 15.08848520 75947,6917.854,95.437,540.718,538.72,0.0
49744.0,STARLINK-3231,PAYLOAD,2023-04-17 18:25:45,15.08863051,0.0001476,53.2161,213.719,64.1468,295.9676,0.0010529,0.00016519,0.0,0 STARLINK-3231,1 49744U 21115W   23107.76788410  .00016519  00000-0  10529-2 0  9993,2 49744  53.2161 213.7190 0001476  64.1468 295.9676 15.08863051 77081,6917.81,95.436,540.696,538.654,0.0
